STARLETTE               
1 07646U 75010A   20129.24222707 -.00000138  00000-0  17389-5 0  9992
2 07646  49.8248 270.1806 0205731 253.3063 104.5158 13.82307519285945
LAGEOS 1                
1 08820U 76039A   20129.13100779  .00000014  00000-0  00000+0 0  9999
2 08820 109.8234 135.1413 0044283  58.9961 326.0988  6.38664651771077
AJISAI (EGS)            
1 16908U 86061A   20129.26685625 -.00000094  00000-0  23030-4 0  9995
2 16908  50.0077 167.2549 0011391 261.7935 177.1317 12.44491992202733
COSMOS 1989 (ETALON 1)  
1 19751U 89001C   20129.17724600  .00000068  00000-0  00000-0 0  9996
2 19751  64.1822 148.8486 0022648 211.0734 283.0636  2.13156324243810
COSMOS 2024 (ETALON 2)  
1 20026U 89039C   20129.44571571 -.00000071  00000-0  00000+0 0  9995
2 20026  65.4748  26.4922 0018104 221.2696 260.3203  2.13204262240939
LAGEOS 2                
1 22195U 92070B   20129.02508880 -.00000009  00000-0  00000-0 0  9992
2 22195  52.6477 236.7201 0137904 291.4603 199.9756  6.47294011651194
STELLA                  
1 22824U 93061B   20129.23730834 -.00000055  00000-0 -32518-5 0  9997
2 22824  98.9601 119.0680 0005711 216.6858 204.7017 14.27380447386501
LARES                   
1 38077U 12006A   20129.10561368 -.00000025  00000-0  80642-4 0  9990
2 38077  69.4892 143.1285 0009396 332.2898  27.7631 12.54931146377257
